[{"OBJECT_NAME":"STARLINK-31533","OBJECT_ID":"2024-071X","EPOCH":"2026-03-09T03:01:51.218400","MEAN_MOTION":15.275669,"ECCENTRICITY":4.807e-5,"INCLINATION":43.0048,"RA_OF_ASC_NODE":343.426,"ARG_OF_PERICENTER":318.9202,"MEAN_ANOMALY":41.1613,"EPHEMERIS_TYPE":0,"CLASSIFICATION_TYPE":"U","NORAD_CAT_ID":59505,"ELEMENT_SET_NO":999,"REV_AT_EPOCH":10811,"BSTAR":-8.6332291e-5,"MEAN_MOTION_DOT":-2.636e-5,"MEAN_MOTION_DDOT":0},{"OBJECT_NAME":"SL-3 DEB","OBJECT_ID":"1988-032D","EPOCH":"2026-03-09T21:36:49.536576","MEAN_MOTION":15.21301321,"ECCENTRICITY":0.00302448,"INCLINATION":97.5102,"RA_OF_ASC_NODE":52.3226,"ARG_OF_PERICENTER":221.5268,"MEAN_ANOMALY":138.367,"EPHEMERIS_TYPE":0,"CLASSIFICATION_TYPE":"U","NORAD_CAT_ID":25655,"ELEMENT_SET_NO":999,"REV_AT_EPOCH":5124,"BSTAR":0.00031081119,"MEAN_MOTION_DOT":6.967e-5,"MEAN_MOTION_DDOT":0}]
